#dP2023 12 30  0  0  0.00000000      96 __u+U IGS20 FIT  IAC
## 2294 518400.00000000   900.00000000 60308 0.0000000000000
+  120   C06C07C08C09C10C11C12C13C14C16C19C20C21C22C23C24C25
+        C26C27C28C29C30C32C33C34C35C36C37C38C39C40C41C42C43
+        C44C45C46E02E03E04E05E07E08E09E10E11E12E13E14E15E18
+        E19E21E24E25E26E27E30E31E33E34E36G01G02G03G04G05G06
+        G07G08G09G10G11G12G13G14G15G16G17G18G19G20G21G22G23
+        G24G25G26G27G28G29G30G31G32J02J03J04R01R02R03R04R05
+        R07R08R09R11R12R13R14R15R16R17R18R19R20R21R22R24R25
+        R26  0  0  0  0  0  0  0  0  0  0  0  0  0  0  0  0
++         8  9  0  7  8  8  7  9  7  8  7  6  7  6  7  6  7
++         7  5  7  6  5  5  7  7  6  6  7  8  7  9  8  7  7
++         5  6  5  5  5  6  6  5  6  5  4  6  5  5  5  6  6
++         6  7  5  6  4  5  4  5  4  7  5  6  5  6  5  5  6
++         5  6  5  6  6  6  5  6  5  6  5  6  5  5  4  5  6
++         6  5  5  0  5  6  5  5  5  8  7  7  6  8  6  8  9
++         8  7  7  6  7  4  6  6  6  6  7  7  7  5  5  6  6
++         6  0  0  0  0  0  0  0  0  0  0  0  0  0  0  0  0
%c M  cc GPS ccc cccc cccc cccc cccc ccccc ccccc ccccc ccccc
%c cc cc ccc ccc cccc cccc cccc cccc ccccc ccccc ccccc ccccc
%f  0.0000000  0.000000000  0.00000000000  0.000000000000000
%f  0.0000000  0.000000000  0.00000000000  0.000000000000000
%i    0    0    0    0      0      0      0      0         0
%i    0    0    0    0      0      0      0      0         0
/* INFORMATION & ANALYSIS CENTER (IAC)      ULTRA-RAPID DATA
/* S/V CLOCKS ARE ALIGNED TO GNSS TIME                      
/* G:C1WC2W R:C1PC2P E:C1XC5X C:C2IC6I J:C1CC2S             
/* PCV:IGS20_2290 OL/AL:FES2004  NONE     YN ORB:CoN CLK:CoN
*  2023 12 30 12 45  0.00000000
PC06  -2364.376406  33524.314054 -25253.965375    235.322279
PC07 -11493.596354  27415.549476  29938.736334   -557.116733
PC08      0.000000      0.000000      0.000000 999999.999999
PC09   5859.559254  37991.192119 -16151.775739   -285.833209
PC10  -3780.567952  27882.448359  31660.402126    145.525605
PC11 -18725.007570 -20586.755682  -1922.562214    332.632729
PC12  -4027.129334 -20803.725507 -18112.288185    810.835634
PC13 -10484.689294  38540.337432 -13783.641437    401.844454
PC14 -14934.800204 -10442.600542  21131.264318   -140.136649
PC16  -2475.493396  32821.080879 -25936.099140   -253.901415
PC19  22679.560757   4178.452149 -15703.803615   -944.659973
PC20   6787.965502  14202.617023 -23034.634849    -18.496958
PC21  14756.110105 -16501.580826  17015.969844   -965.603970
PC22  26480.010054  -8777.213285   1065.062454   -166.798466
PC23 -17047.712986   9211.027159 -20090.975453   -796.526495
PC24  -1906.688002 -25738.157183 -10598.957147    741.995087
PC25 -13852.770488 -10598.195895 -21793.829393    290.086746
PC26   9722.660010 -25421.078516   6054.260968   -227.565067
PC27  -4533.438601  16751.383207  21836.014510    249.580374
PC28 -18180.280648   2950.507722  20973.636893    189.090288
PC29  23098.296855  14275.814597  -6429.935541    221.448183
PC30  12614.849267  21979.022980  11655.999320    -12.181186
PC32 -14718.411089  16594.290328 -16916.036031   -547.979511
PC33 -22618.987245  -4155.213010  15801.407539   -941.967750
PC34 -13835.509057 -21927.727601 -10358.079986    336.196171
PC35  18080.286347  -3715.161670 -20926.379023    468.885942
PC36  13271.175019  11716.401587  21588.032486    -72.330156
PC37 -10636.380360  24955.288963  -6610.797308   -931.387716
PC38 -18982.039916  37726.253557   -522.828404    127.324414
PC39  -6424.285396  28614.206043 -30157.824963     -6.382300
PC40 -17875.719867  20966.483566  31825.664733    -49.955952
PC41 -26619.702815   8360.798864   -211.859314   -876.217161
PC42  -5027.063763 -14873.782060  23111.782288   -472.837637
PC43 -22929.369202 -14929.026578   5543.956443     54.389959
PC44   4135.823685 -16938.676431 -21804.448167    338.557424
PC45  16922.846160  -9626.381017  19971.568612    -59.181709
PC46   2462.399282  25340.326860  11464.013015   -111.615275
PE02  16603.611558 -23188.660892  -7888.694052     90.896740
PE03   9568.457510 -14624.231149  23883.733403    -83.620007
PE04  12584.563551  18053.025585 -19792.239303   -291.992340
PE05  25904.521020  -2741.000622  14053.890675   4705.485741
PE07 -27071.868462 -11094.393963   4480.809363    -95.759592
PE08 -11975.095618 -17990.677387  20219.236752   -200.189511
PE09  27041.995432  11126.953687  -4626.028960   -281.482775
PE10  13256.209634  24079.447290 -10987.176910   -590.297652
PE11  16542.075536  15245.879479 -19232.067982   3278.389027
PE12   8279.079164  28337.894460  -2012.013443   -841.071735
PE13 -16379.923969 -15951.236029  18814.412858    -19.785052
PE14  31084.401277   4466.792788  -7025.972218     -3.713193
PE15  -8011.033351 -28459.956571   1506.592011    -77.465302
PE18 -22927.288345  -5529.252749   3124.001496    153.587914
PE19 -12085.152077  13365.287428 -23482.723573   -912.249070
PE21 -24312.564289  13574.010790 -10059.371619   -571.392711
PE24  17922.941055   4969.002244  23001.773592   -514.348950
PE25  24326.129360 -13266.279831  10396.523182     -1.232314
PE26 -14995.980253   6461.798231  24701.121426    324.690899
PE27 -18231.432751  -4435.454355 -22900.131835   -236.908065
PE30  -1183.469725 -19815.568348 -21965.061543   -783.773712
PE31   1459.499006  19642.711190  22100.062299    -12.729617
PE33  -5319.759458  23737.031461  16879.541731      5.104353
PE34   4896.091245 -24118.702051 -16437.167224    -86.207395
PE36  15038.381463  -5684.781001 -24843.225252   -164.859430
PG01 -13982.991444   3475.507451  21965.063741    164.894148
PG02 -16522.925760  -3439.320129  21069.424343   -508.209791
PG03 -21394.735080   8751.074433  12834.351254     91.403011
PG04 -24294.391917    107.467069 -10878.641337    253.079104
PG05  17225.684392   2020.832997 -20319.347465   -156.072876
PG06   6264.236147  25751.928168   -164.309108    461.632925
PG07  -7521.662033  18710.692747 -16555.261065    -24.866927
PG08 -26229.601448  -4896.176717   2306.336716   -159.584194
PG09 -16052.728456   9622.284125 -18955.894892     42.892403
PG10   6271.077926 -20568.465366  15567.396197    -67.340577
PG11  11892.732635  21145.174643 -10844.118323   -520.961620
PG12  22070.424059  -7215.182334  12547.493486   -462.767352
PG13  22131.210467  13917.333112  -5508.464627    610.886489
PG14  -9964.296581  21213.619910  12344.252186    285.040402
PG15  26498.694274   2333.045747   1487.447107    112.136489
PG16 -12851.235180  -9066.184182 -21777.695355   -394.187891
PG17  -2186.059307  15219.528784  22078.061883    721.001528
PG18   6648.081823 -19894.142474 -16166.158860   -519.616567
PG19   8306.599562  17035.269047  18562.285429    419.608985
PG20   8253.029021  14044.477188 -20951.053299    394.052570
PG21 -17197.236712  -8591.375101  19213.624194    139.989224
PG22  -3867.106149  19452.399503  18240.871716     56.948068
PG23  16008.778095 -20622.130135   4326.407107    125.680903
PG24  16985.235936   4411.048444  19640.909532   -404.016034
PG25  19902.940390 -17072.847726   2814.349909    483.445243
PG26  -5458.907925 -16434.740260 -20187.623358    204.858872
PG27 -21097.836735 -13171.188536 -10168.035621 999999.999999
PG28  -5448.378066 -25849.374542   2742.588779    -84.178736
PG29  17538.572494  -7107.707137 -18723.959720   -609.298386
PG30   -262.906380  24986.097087  -8479.900763   -451.447735
PG31 -10091.047453 -23511.146795  -6485.895089   -226.982734
PG32  -2915.607587 -16107.157360  21145.037717   -601.003009
PJ02 -30343.071537  29249.421747   6518.364824     -0.849042
PJ03 -24068.560494  25921.310210  28050.756098    -14.194478
PJ04 -32328.838977  22980.037374  -9094.249200     75.458078
PR01  25140.323347  -1643.595935  -4016.513120     73.362163
PR02  20002.538836  -8380.722592  13412.678259    -22.355614
PR03   3279.255505 -11132.160800  22753.456199     91.892650
PR04 -14644.207081  -7545.065834  19510.311629    217.497639
PR05 -24870.912050   -123.495789   5744.331383    124.627660
PR07  -2475.424726  11061.990522 -22816.504626     72.490835
PR08  14887.130880   7421.677367 -19264.632317    -73.864949
PR09 -13147.303640  19233.446975 -10281.230323    161.615775
PR11   3420.319779  15958.353511  19603.700580   -224.375052
PR12  12715.113618  -2988.423040  21924.592270     35.053015
PR13  13703.207367 -17596.595210  12352.983069    -42.777322
PR14   6335.022727 -23752.493252  -6833.978889     25.869363
PR15  -4245.034427 -14882.174481 -20265.292639     83.530736
PR16 -12470.573296   2795.645338 -22067.127672     22.034739
PR17  -5771.958422 -19633.598323 -15186.699472     47.986227
PR18 -15005.900666 -20657.466982    429.874454    119.528018
PR19 -16474.305749 -12836.235748  14651.112569   -260.195067
PR20  -8104.664025   6547.099764  23297.808381   -105.979649
PR21   6025.121242  19867.684930  14845.070346    -64.996428
PR22  14737.049394  20763.805209  -1385.098428    100.759621
PR24   7801.877295  -7685.098122 -23013.013813    -37.938243
PR25   4831.730741  20035.150306  15054.592516      8.253410
PR26  14262.403641   7613.229709 -19716.973456 999999.999999
EOF
